{
  "type": "FeatureCollection",
  "features": [
    {
      "type": "Feature",
      "properties": {
        "norad_id": 38867,
        "name": "INTELSAT 23 (IS-23)",
        "group": "intelsat",
        "lat": 0.01060488882589997,
        "lon": 28.824817850319313,
        "alt_km": 35786.793053382615,
        "timestamp": "2025-12-18T23:35:48.715183+00:00",
        "meta_object_name": "INTELSAT 23 (IS-23)",
        "meta_object_id": "2012-057A",
        "meta_epoch": "2025-12-18T11:19:52.963392",
        "meta_mean_motion": 1.00270852,
        "meta_eccentricity": 5.649e-05,
        "meta_inclination": 0.017,
        "meta_ra_of_asc_node": 29.9084,
        "meta_arg_of_pericenter": 259.69,
        "meta_mean_anomaly": 274.7471,
        "meta_ephemeris_type": 0,
        "meta_classification_type": "U",
        "meta_norad_cat_id": 38867,
        "meta_element_set_no": 999,
        "meta_rev_at_epoch": 4814,
        "meta_bstar": 0,
        "meta_mean_motion_dot": -2.6e-06,
        "meta_mean_motion_ddot": 0,
        "tle_line1": "1 38867U 12057A   25352.47214078 -.00000260  00000+0  00000+0 0  9994",
        "tle_line2": "2 38867   0.0170  29.9084 0000564 259.6900 274.7471  1.00270852 48144"
      },
      "geometry": {
        "type": "Point",
        "coordinates": [
          28.824817850319313,
          0.01060488882589997
        ]
      }
    },
    {
      "type": "Feature",
      "properties": {
        "norad_id": 39360,
        "name": "FM-6",
        "group": "intelsat",
        "lat": -0.014880959187604056,
        "lon": -34.35749015182017,
        "alt_km": 35795.695209008634,
        "timestamp": "2025-12-18T23:35:48.715195+00:00",
        "meta_object_name": "FM-6",
        "meta_object_id": "2013-058A",
        "meta_epoch": "2025-12-18T14:27:20.008224",
        "meta_mean_motion": 1.00273107,
        "meta_eccentricity": 0.00028667,
        "meta_inclination": 0.0123,
        "meta_ra_of_asc_node": 67.2703,
        "meta_arg_of_pericenter": 112.0416,
        "meta_mean_anomaly": 8.8268,
        "meta_ephemeris_type": 0,
        "meta_classification_type": "U",
        "meta_norad_cat_id": 39360,
        "meta_element_set_no": 999,
        "meta_rev_at_epoch": 4426,
        "meta_bstar": 0,
        "meta_mean_motion_dot": 8e-08,
        "meta_mean_motion_ddot": 0,
        "tle_line1": "1 39360U 13058A   25352.60231491  .00000008  00000+0  00000+0 0  9997",
        "tle_line2": "2 39360   0.0123  67.2703 0002866 112.0416   8.8268  1.00273107 44260"
      },
      "geometry": {
        "type": "Point",
        "coordinates": [
          -34.35749015182017,
          -0.014880959187604056
        ]
      }
    },
    {
      "type": "Feature",
      "properties": {
        "norad_id": 40271,
        "name": "INTELSAT 30 (IS-30)",
        "group": "intelsat",
        "lat": -0.015370036587279588,
        "lon": -13.293899729718735,
        "alt_km": 35788.22246651328,
        "timestamp": "2025-12-18T23:35:48.715207+00:00",
        "meta_object_name": "INTELSAT 30 (IS-30)",
        "meta_object_id": "2014-062A",
        "meta_epoch": "2025-12-18T14:33:19.434816",
        "meta_mean_motion": 1.00270325,
        "meta_eccentricity": 0.0001645,
        "meta_inclination": 0.0158,
        "meta_ra_of_asc_node": 26.3613,
        "meta_arg_of_pericenter": 64.6391,
        "meta_mean_anomaly": 119.744,
        "meta_ephemeris_type": 0,
        "meta_classification_type": "U",
        "meta_norad_cat_id": 40271,
        "meta_element_set_no": 999,
        "meta_rev_at_epoch": 498,
        "meta_bstar": 0,
        "meta_mean_motion_dot": -1.26e-06,
        "meta_mean_motion_ddot": 0,
        "tle_line1": "1 40271U 14062A   25352.60647494 -.00000126  00000+0  00000+0 0  9992",
        "tle_line2": "2 40271   0.0158  26.3613 0001645  64.6391 119.7440  1.00270325  4983"
      },
      "geometry": {
        "type": "Point",
        "coordinates": [
          -13.293899729718735,
          -0.015370036587279588
        ]
      }
    },
    {
      "type": "Feature",
      "properties": {
        "norad_id": 40333,
        "name": "DIRECTV 14",
        "group": "intelsat",
        "lat": 0.0022668896440110587,
        "lon": -17.432667840300805,
        "alt_km": 35788.21726676997,
        "timestamp": "2025-12-18T23:35:48.715218+00:00",
        "meta_object_name": "DIRECTV 14",
        "meta_object_id": "2014-078B",
        "meta_epoch": "2025-12-18T14:32:04.553664",
        "meta_mean_motion": 1.00272625,
        "meta_eccentricity": 5.636e-05,
        "meta_inclination": 0.0177,
        "meta_ra_of_asc_node": 334.0753,
        "meta_arg_of_pericenter": 186.0561,
        "meta_mean_anomaly": 46.1403,
        "meta_ephemeris_type": 0,
        "meta_classification_type": "U",
        "meta_norad_cat_id": 40333,
        "meta_element_set_no": 999,
        "meta_rev_at_epoch": 4023,
        "meta_bstar": 0,
        "meta_mean_motion_dot": -1.01e-06,
        "meta_mean_motion_ddot": 0,
        "tle_line1": "1 40333U 14078B   25352.60560826 -.00000101  00000+0  00000+0 0  9994",
        "tle_line2": "2 40333   0.0177 334.0753 0000563 186.0561  46.1403  1.00272625 40238"
      },
      "geometry": {
        "type": "Point",
        "coordinates": [
          -17.432667840300805,
          0.0022668896440110587
        ]
      }
    },
    {
      "type": "Feature",
      "properties": {
        "norad_id": 40663,
        "name": "DIRECTV 15",
        "group": "intelsat",
        "lat": -0.005916149812873174,
        "lon": -21.089814179697253,
        "alt_km": 35786.769193225424,
        "timestamp": "2025-12-18T23:35:48.715230+00:00",
        "meta_object_name": "DIRECTV 15",
        "meta_object_id": "2015-026A",
        "meta_epoch": "2025-12-18T14:31:04.649952",
        "meta_mean_motion": 1.00271589,
        "meta_eccentricity": 2.014e-05,
        "meta_inclination": 0.0033,
        "meta_ra_of_asc_node": 62.2506,
        "meta_arg_of_pericenter": 54.3445,
        "meta_mean_anomaly": 85.7717,
        "meta_ephemeris_type": 0,
        "meta_classification_type": "U",
        "meta_norad_cat_id": 40663,
        "meta_element_set_no": 999,
        "meta_rev_at_epoch": 3865,
        "meta_bstar": 0,
        "meta_mean_motion_dot": -7.8e-07,
        "meta_mean_motion_ddot": 0,
        "tle_line1": "1 40663U 15026A   25352.60491493 -.00000078  00000+0  00000+0 0  9990",
        "tle_line2": "2 40663   0.0033  62.2506 0000201  54.3445  85.7717  1.00271589 38656"
      },
      "geometry": {
        "type": "Point",
        "coordinates": [
          -21.089814179697253,
          -0.005916149812873174
        ]
      }
    },
    {
      "type": "Feature",
      "properties": {
        "norad_id": 40664,
        "name": "SKY MEXICO-1",
        "group": "intelsat",
        "lat": 0.019797154222832805,
        "lon": 3.042029220802231,
        "alt_km": 35784.22640470266,
        "timestamp": "2025-12-18T23:35:48.715241+00:00",
        "meta_object_name": "SKY MEXICO-1",
        "meta_object_id": "2015-026B",
        "meta_epoch": "2025-12-18T12:15:35.616096",
        "meta_mean_motion": 1.00272146,
        "meta_eccentricity": 0.00022802,
        "meta_inclination": 0.0138,
        "meta_ra_of_asc_node": 315.7301,
        "meta_arg_of_pericenter": 328.1914,
        "meta_mean_anomaly": 268.5854,
        "meta_ephemeris_type": 0,
        "meta_classification_type": "U",
        "meta_norad_cat_id": 40664,
        "meta_element_set_no": 999,
        "meta_rev_at_epoch": 3864,
        "meta_bstar": 0,
        "meta_mean_motion_dot": -2.09e-06,
        "meta_mean_motion_ddot": 0,
        "tle_line1": "1 40664U 15026B   25352.51082889 -.00000209  00000+0  00000+0 0  9992",
        "tle_line2": "2 40664   0.0138 315.7301 0002280 328.1914 268.5854  1.00272146 38646"
      },
      "geometry": {
        "type": "Point",
        "coordinates": [
          3.042029220802231,
          0.019797154222832805
        ]
      }
    },
    {
      "type": "Feature",
      "properties": {
        "norad_id": 40874,
        "name": "INTELSAT 34 (IS-34)",
        "group": "intelsat",
        "lat": 0.028864313302679877,
        "lon": 26.262215802827306,
        "alt_km": 35787.662407969074,
        "timestamp": "2025-12-18T23:35:48.715253+00:00",
        "meta_object_name": "INTELSAT 34 (IS-34)",
        "meta_object_id": "2015-039A",
        "meta_epoch": "2025-12-18T13:01:50.696832",
        "meta_mean_motion": 1.00269877,
        "meta_eccentricity": 6.115e-05,
        "meta_inclination": 0.0152,
        "meta_ra_of_asc_node": 339.1301,
        "meta_arg_of_pericenter": 160.2363,
        "meta_mean_anomaly": 87.9911,
        "meta_ephemeris_type": 0,
        "meta_classification_type": "U",
        "meta_norad_cat_id": 40874,
        "meta_element_set_no": 999,
        "meta_rev_at_epoch": 3781,
        "meta_bstar": 0,
        "meta_mean_motion_dot": -2.6e-06,
        "meta_mean_motion_ddot": 0,
        "tle_line1": "1 40874U 15039A   25352.54294788 -.00000260  00000+0  00000+0 0  9992",
        "tle_line2": "2 40874   0.0152 339.1301 0000611 160.2363  87.9911  1.00269877 37816"
      },
      "geometry": {
        "type": "Point",
        "coordinates": [
          26.262215802827306,
          0.028864313302679877
        ]
      }
    }
  ]
}